{"type":"FeatureCollection","features":[
{"type":"Feature","properties":{"Complejo":"Futuro complejo sanitario en la antigua Fe","Zona":"Campanar","Estado":"Obras en curso","Tipo":"Hospital general","Titularidad":"Público","LAT":39.48379215715508,"LONG":-0.3903097132341462},"geometry":{"type":"Point","coordinates":[-0.39031,39.483792]}},
{"type":"Feature","properties":{"Complejo":"IVO","Zona":"Campanar","Estado":"Ampliación en proyecto","Tipo":"Centro especializado en cáncer","Titularidad":"Privado concertado","LAT":39.48206168572418,"LONG":-0.3905328282495737},"geometry":{"type":"Point","coordinates":[-0.390533,39.482062]}},
{"type":"Feature","properties":{"Complejo":"Hospital Arnau de Vilanova","Zona":"Campanar","Estado":"En servicio de los 70","Tipo":"Hospital general","Titularidad":"Público","LAT":39.49073362593958,"LONG":-0.40362724554364765},"geometry":{"type":"Point","coordinates":[-0.403627,39.490733]}},
{"type":"Feature","properties":{"Complejo":"Hospital Vithas 9 Octubre","Zona":"Campanar","Estado":"En servicio desde los 90","Tipo":"Hospital general","Titularidad":"Privado","LAT":39.477973619713936,"LONG":-0.4015508089993208},"geometry":{"type":"Point","coordinates":[-0.401551,39.477974]}},
{"type":"Feature","properties":{"Complejo":"Centro de salud Campanar","Zona":"Campanar","Estado":"En servicio desde los 90","Tipo":"Centro de salud","Titularidad":"Público","LAT":39.47761591592584,"LONG":-0.40054558944548996},"geometry":{"type":"Point","coordinates":[-0.400546,39.477616]}},
{"type":"Feature","properties":{"Complejo":"Edificio IVI de reproduccion asistida","Zona":"Campanar","Estado":"En servicio desde los 90","Tipo":"Centro especializado en fertilidad","Titularidad":"Privado","LAT":39.47935099967065,"LONG":-0.40058297291144773},"geometry":{"type":"Point","coordinates":[-0.400583,39.479351]}},
{"type":"Feature","properties":{"Complejo":"Ascires Campanar (clinica c/marques san juan)","Zona":"Campanar","Estado":"En servicio desde hace una década","Tipo":"Centro especializado en pruebas por imagen","Titularidad":"Privado","LAT":39.479074246774445,"LONG":-0.39477350351388063},"geometry":{"type":"Point","coordinates":[-0.394774,39.479074]}},
{"type":"Feature","properties":{"@circle":{"type":"Mercator","center":[-0.3992348215306034,39.484113115309626]}},"geometry":{"type":"Polygon","coordinates":[[[-0.388019,39.484113],[-0.388041,39.484657],[-0.388107,39.485198],[-0.388217,39.485735],[-0.388371,39.486266],[-0.388568,39.486788],[-0.388806,39.4873],[-0.389086,39.487799],[-0.389406,39.488283],[-0.389765,39.488751],[-0.390161,39.489201],[-0.390593,39.489631],[-0.391059,39.490039],[-0.391557,39.490423],[-0.392085,39.490783],[-0.392642,39.491116],[-0.393225,39.491422],[-0.393831,39.491699],[-0.394459,39.491945],[-0.395106,39.492161],[-0.395769,39.492346],[-0.396445,39.492497],[-0.397133,39.492616],[-0.397829,39.492701],[-0.398531,39.492752],[-0.399235,39.492769],[-0.399939,39.492752],[-0.400641,39.492701],[-0.401337,39.492616],[-0.402024,39.492497],[-0.402701,39.492346],[-0.403364,39.492161],[-0.40401,39.491945],[-0.404638,39.491699],[-0.405245,39.491422],[-0.405827,39.491116],[-0.406384,39.490783],[-0.406913,39.490423],[-0.407411,39.490039],[-0.407877,39.489631],[-0.408309,39.489201],[-0.408705,39.488751],[-0.409064,39.488283],[-0.409383,39.487799],[-0.409663,39.4873],[-0.409902,39.486788],[-0.410099,39.486266],[-0.410252,39.485735],[-0.410362,39.485198],[-0.410429,39.484657],[-0.410451,39.484113],[-0.410429,39.48357],[-0.410362,39.483028],[-0.410252,39.482491],[-0.410099,39.48196],[-0.409902,39.481438],[-0.409663,39.480926],[-0.409383,39.480427],[-0.409064,39.479943],[-0.408705,39.479475],[-0.408309,39.479025],[-0.407877,39.478595],[-0.407411,39.478187],[-0.406913,39.477802],[-0.406384,39.477443],[-0.405827,39.477109],[-0.405245,39.476804],[-0.404638,39.476527],[-0.40401,39.47628],[-0.403364,39.476064],[-0.402701,39.47588],[-0.402024,39.475728],[-0.401337,39.475609],[-0.400641,39.475524],[-0.399939,39.475473],[-0.399235,39.475456],[-0.398531,39.475473],[-0.397829,39.475524],[-0.397133,39.475609],[-0.396445,39.475728],[-0.395769,39.47588],[-0.395106,39.476064],[-0.394459,39.47628],[-0.393831,39.476527],[-0.393225,39.476804],[-0.392642,39.477109],[-0.392085,39.477443],[-0.391557,39.477802],[-0.391059,39.478187],[-0.390593,39.478595],[-0.390161,39.479025],[-0.389765,39.479475],[-0.389406,39.479943],[-0.389086,39.480427],[-0.388806,39.480926],[-0.388568,39.481438],[-0.388371,39.48196],[-0.388217,39.482491],[-0.388107,39.483028],[-0.388019,39.484113]]]}}
]}
