{"type":"FeatureCollection",
"features":[
{"type":"Feature","properties":{"Complejo":"Futuro complejo sanitario en la antigua Fe","Zona":"Campanar","Estado":"Obras en curso","Tipo":"Hospital general","Titularidad":"Público",
"LAT":39.48379215715508,"LONG":-0.3903097132341462},"geometry":{"type":"Point","coordinates":[-0.39031,39.483792]}},
{"type":"Feature","properties":{"Complejo":"IVO","Zona":"Campanar","Estado":"Ampliación en proyecto","Tipo":"Centro especializado en cáncer","Titularidad":"Privado concertado",
"LAT":39.48206168572418,"LONG":-0.3905328282495737},"geometry":{"type":"Point","coordinates":[-0.390533,39.482062]}},
{"type":"Feature","properties":{"Complejo":"Hospital Vithas 9 Octubre","Zona":"Campanar","Estado":"En servicio desde los 90","Tipo":"Hospital general","Titularidad":"Privado",
"LAT":39.477973619713936,"LONG":-0.4015508089993208},"geometry":{"type":"Point","coordinates":[-0.401551,39.477974]}},
{"type":"Feature","properties":{"Complejo":"Centro de salud Campanar","Zona":"Campanar","Estado":"En servicio desde los 90","Tipo":"Centro de salud","Titularidad":"Público",
"LAT":39.47761591592584,"LONG":-0.40054558944548996},"geometry":{"type":"Point","coordinates":[-0.400546,39.477616]}},
{"type":"Feature","properties":{"Complejo":"Edificio IVI de reproduccion asistida","Zona":"Campanar","Estado":"En servicio desde los 90","Tipo":"Centro especializado en fertilidad","Titularidad":"Privado",
"LAT":39.47935099967065,"LONG":-0.40058297291144773},"geometry":{"type":"Point","coordinates":[-0.400583,39.479351]}},
{"type":"Feature","properties":{"Complejo":"Ascires Campanar (clinica c/marques san juan)","Zona":"Campanar","Estado":"En servicio desde hace una década","Tipo":"Centro especializado en pruebas por imagen","Titularidad":"Privado",
"LAT":39.479074246774445,"LONG":-0.39477350351388063},"geometry":{"type":"Point","coordinates":[-0.394774,39.479074]}},
{"type":"Feature","properties":{"@circle":{"type":"Mercator","center":[-0.3958109358096361,39.48048916692618]}},"geometry":{"type":"Polygon","coordinates":[[[-0.387479,39.480489],[-0.387496,39.480893],[-0.387545,39.481295],[-0.387627,39.481694],[-0.387741,39.482088],[-0.387887,39.482476],[-0.388064,39.482856],[-0.388272,39.483227],[-0.38851,39.483587],[-0.388776,39.483935],[-0.38907,39.484269],[-0.389391,39.484588],[-0.389737,39.484891],[-0.390107,39.485177],[-0.3905,39.485444],[-0.390914,39.485692],[-0.391347,39.485919],[-0.391797,39.486124],[-0.392263,39.486308],[-0.392744,39.486468],[-0.393236,39.486605],[-0.393739,39.486718],[-0.39425,39.486806],[-0.394767,39.486869],[-0.395288,39.486907],[-0.395811,39.48692],[-0.396334,39.486907],[-0.396855,39.486869],[-0.397372,39.486806],[-0.397883,39.486718],[-0.398386,39.486605],[-0.398878,39.486468],[-0.399358,39.486308],[-0.399825,39.486124],[-0.400275,39.485919],[-0.400708,39.485692],[-0.401122,39.485444],[-0.401514,39.485177],[-0.401885,39.484891],[-0.402231,39.484588],[-0.402552,39.484269],[-0.402846,39.483935],[-0.403112,39.483587],[-0.40335,39.483227],[-0.403558,39.482856],[-0.403735,39.482476],[-0.403881,39.482088],[-0.403995,39.481694],[-0.404077,39.481295],[-0.404126,39.480893],[-0.404143,39.480489],[-0.404126,39.480085],[-0.404077,39.479683],[-0.403995,39.479284],[-0.403881,39.47889],[-0.403735,39.478502],[-0.403558,39.478122],[-0.40335,39.477751],[-0.403112,39.477391],[-0.402846,39.477043],[-0.402552,39.476709],[-0.402231,39.47639],[-0.401885,39.476087],[-0.401514,39.475801],[-0.401122,39.475534],[-0.400708,39.475286],[-0.400275,39.475059],[-0.399825,39.474854],[-0.399358,39.47467],[-0.398878,39.47451],[-0.398386,39.474373],[-0.397883,39.47426],[-0.397372,39.474172],[-0.396855,39.474109],[-0.396334,39.474071],[-0.395811,39.474058],[-0.395288,39.474071],[-0.394767,39.474109],[-0.39425,39.474172],[-0.393739,39.47426],[-0.393236,39.474373],[-0.392744,39.47451],[-0.392263,39.47467],[-0.391797,39.474854],[-0.391347,39.475059],[-0.390914,39.475286],[-0.3905,39.475534],[-0.390107,39.475801],[-0.389737,39.476087],[-0.389391,39.47639],[-0.38907,39.476709],[-0.388776,39.477043],[-0.38851,39.477391],[-0.388272,39.477751],[-0.388064,39.478122],[-0.387887,39.478502],[-0.387741,39.47889],[-0.387627,39.479284],[-0.387545,39.479683],[-0.387479,39.480489]]]}}]}
