{
"type": "FeatureCollection",
"name": "complejos-sanitarios",
"crs": { "type": "name", "properties": { "name": "urn:ogc:def:crs:OGC:1.3:CRS84" } },
"features": [
{ "type": "Feature", "properties": { "Complejo": "- Futuro complejo sanitario en la antigua Fe", "Zona": "Campanar", "LAT": 39.483792157155079, "LONG": -0.3903097132341462 }, "geometry": { "type": "Point", "coordinates": [ -0.390309713234146, 39.483792157155079 ] } },
{ "type": "Feature", "properties": { "Complejo": "- IVO", "Zona": "Campanar", "LAT": 39.482061685724183, "LONG": -0.39053282824957369 }, "geometry": { "type": "Point", "coordinates": [ -0.390532828249574, 39.482061685724183 ] } },
{ "type": "Feature", "properties": { "Complejo": "- Hospital Vithas 9 Octubre", "Zona": "Campanar", "LAT": 39.477973619713936, "LONG": -0.40155080899932077 }, "geometry": { "type": "Point", "coordinates": [ -0.401550808999321, 39.477973619713936 ] } },
{ "type": "Feature", "properties": { "Complejo": "- Centro de salud Campanar", "Zona": "Campanar", "LAT": 39.477615915925838, "LONG": -0.40054558944548996 }, "geometry": { "type": "Point", "coordinates": [ -0.40054558944549, 39.477615915925838 ] } },
{ "type": "Feature", "properties": { "Complejo": "- Edificio IVI de reproduccion asistida", "Zona": "Campanar", "LAT": 39.47935099967065, "LONG": -0.40058297291144773 }, "geometry": { "type": "Point", "coordinates": [ -0.400582972911448, 39.47935099967065 ] } },
{ "type": "Feature", "properties": { "Complejo": "- Ascires Campanar (clinica c/marques san juan)", "Zona": "Campanar", "LAT": 39.479074246774445, "LONG": -0.39477350351388063 }, "geometry": { "type": "Point", "coordinates": [ -0.394773503513881, 39.479074246774445 ] } },
{ "type": "Feature", "properties": { "Complejo": "- Hospital General", "Zona": "Bulevar Sur", "LAT": 39.468428899625458, "LONG": -0.40924081945382251 }, "geometry": { "type": "Point", "coordinates": [ -0.409240819453823, 39.468428899625458 ] } },
{ "type": "Feature", "properties": { "Complejo": "- La Fe", "Zona": "Bulevar Sur", "LAT": 39.44371783742838, "LONG": -0.37608912318101867 }, "geometry": { "type": "Point", "coordinates": [ -0.376089123181019, 39.44371783742838 ] } },
{ "type": "Feature", "properties": { "Complejo": "- Futuro edificio protonterapia", "Zona": "Bulevar Sur", "LAT": 39.444124257890572, "LONG": -0.37243860053185929 }, "geometry": { "type": "Point", "coordinates": [ -0.372438600531859, 39.444124257890572 ] } },
{ "type": "Feature", "properties": { "Complejo": "- Nuevo hospital Ascires", "Zona": "Bulevar Sur", "LAT": 39.45381359713943, "LONG": -0.40027272571005246 }, "geometry": { "type": "Point", "coordinates": [ -0.400272725710052, 39.45381359713943 ] } },
{ "type": "Feature", "properties": { "Complejo": "- Nuevo Vithas Valencia Turia (en servicio hace 1 año)", "Zona": "Bulevar Sur", "LAT": 39.447606547788972, "LONG": -0.37336046348004309 }, "geometry": { "type": "Point", "coordinates": [ -0.373360463480043, 39.447606547788972 ] } },
{ "type": "Feature", "properties": { "Complejo": "- Futuro hospital Quirón", "Zona": "Bulevar Sur", "LAT": 39.443205505567803, "LONG": -0.36990818543178777 }, "geometry": { "type": "Point", "coordinates": [ -0.369908185431788, 39.443205505567803 ] } },
{ "type": "Feature", "properties": { "Complejo": "- Hospital Doctor Peset ", "Zona": "Bulevar Sur", "LAT": 39.452821826416709, "LONG": -0.39418918741319536 }, "geometry": { "type": "Point", "coordinates": [ -0.394189187413195, 39.452821826416709 ] } },
{ "type": "Feature", "properties": { "Complejo": "- Hospital de crónicos Padre Jofré", "Zona": "Bulevar Sur", "LAT": 39.453318802180135, "LONG": -0.39486688684887161 }, "geometry": { "type": "Point", "coordinates": [ -0.394866886848872, 39.453318802180135 ] } }
]
}
