{
"type": "FeatureCollection",
"name": "especial",
"crs": { "type": "name", "properties": { "name": "urn:ogc:def:crs:OGC:1.3:CRS84" } },
"features": [
{ "type": "Feature", "properties": { "objectid": 8304, "id_falla": 12, "nombre": "Convent de Jerusalem-Matemàtic Marzal", "seccion": "E", "fallera": "Juana Paula Centeno Roig", "presidente": "Francisco Segura Hervás", "artista": "David Sánchez Llongo", "lema": "Redimonis", "anyo_fundacion": 1893, "distintivo": "Brillants (1983)", "boceto": "http://mapas.valencia.es/WebsMunicipales/layar/img/fallasvalencia/2026_012_bm.jpg", "experim": 0, "geo_point_2d": { "lon": -0.379516, "lat": 39.466438 } }, "geometry": { "type": "Point", "coordinates": [ -0.37951592968875, 39.466438440600569 ] } },
{ "type": "Feature", "properties": { "objectid": 8243, "id_falla": 34, "nombre": "Plaça del Pilar", "seccion": "E", "fallera": "Leyre Güil Barberá", "presidente": "José Javier López Llop", "artista": "Paco Torres Josa", "lema": "La Nit", "anyo_fundacion": 1954, "distintivo": "Brillants (1985)", "boceto": "http://mapas.valencia.es/WebsMunicipales/layar/img/fallasvalencia/2026_034_bm.jpg", "experim": 0, "geo_point_2d": { "lon": -0.382965, "lat": 39.471357 } }, "geometry": { "type": "Point", "coordinates": [ -0.382964701250661, 39.471357043242428 ] } },
{ "type": "Feature", "properties": { "objectid": 8473, "id_falla": 197, "nombre": "Monestir de Poblet-Aparicio Albiñana", "seccion": "E", "fallera": "Ángela León Palomo", "presidente": "Consuelo Salavert Ruiz", "artista": "Josué Beitia Cardós", "lema": "Sent i Ment", "anyo_fundacion": 1972, "distintivo": "Brillants (2016)", "boceto": "http://mapas.valencia.es/WebsMunicipales/layar/img/fallasvalencia/2026_197_bm.jpg", "experim": 0, "geo_point_2d": { "lon": -0.397031, "lat": 39.483874 } }, "geometry": { "type": "Point", "coordinates": [ -0.397030945452985, 39.483874436007554 ] } },
{ "type": "Feature", "properties": { "objectid": 8443, "id_falla": 22, "nombre": "Exposició-Misser Mascó", "seccion": "E", "fallera": "Cristina Olmos Mestre", "presidente": "Gabriel Giménez Moltó", "artista": "Banyuls & Ruiz", "lema": "Meditem", "anyo_fundacion": 1950, "distintivo": "Brillants (1992)", "boceto": "http://mapas.valencia.es/WebsMunicipales/layar/img/fallasvalencia/2026_022_bm.jpg", "experim": 0, "geo_point_2d": { "lon": -0.362022, "lat": 39.475304 } }, "geometry": { "type": "Point", "coordinates": [ -0.36202199835634, 39.475304228431845 ] } },
{ "type": "Feature", "properties": { "objectid": 8466, "id_falla": 14, "nombre": "Almirall Cadarso-Comte d'Altea", "seccion": "E", "fallera": "Carmen Salvador Arnau", "presidente": "Sergio Lorente Pinazo", "artista": "Francisco Giner Nuñez", "lema": "Res en excés", "anyo_fundacion": 1930, "distintivo": "Brillants (2004)", "boceto": "http://mapas.valencia.es/WebsMunicipales/layar/img/fallasvalencia/2026_014_bm.jpg", "experim": 0, "geo_point_2d": { "lon": -0.368416, "lat": 39.465837 } }, "geometry": { "type": "Point", "coordinates": [ -0.368415780494872, 39.465837405098043 ] } },
{ "type": "Feature", "properties": { "objectid": 8528, "id_falla": 9, "nombre": "Na Jordana", "seccion": "E", "fallera": "Marta Torres Miranda", "presidente": "Josep Vicent Llopis García", "artista": "Mario Gual del Olmo", "lema": "Passions a la deriva", "anyo_fundacion": 1884, "distintivo": "Brillants (1983)", "boceto": "http://mapas.valencia.es/WebsMunicipales/layar/img/fallasvalencia/2026_009_bm.jpg", "experim": 0, "geo_point_2d": { "lon": -0.380111, "lat": 39.481004 } }, "geometry": { "type": "Point", "coordinates": [ -0.380111015780797, 39.481004157509417 ] } },
{ "type": "Feature", "properties": { "objectid": 8478, "id_falla": 28, "nombre": "Cuba-Literat Azorín", "seccion": "E", "fallera": "Rocío Sánchez Jiménez", "presidente": "Francisco Javier García Peinado", "artista": "Carlos Carsi García", "lema": "Passant a millor vida", "anyo_fundacion": 1948, "distintivo": "Brillants (1999)", "boceto": "http://mapas.valencia.es/WebsMunicipales/layar/img/fallasvalencia/2026_028_bm.jpg", "experim": 0, "geo_point_2d": { "lon": -0.375524, "lat": 39.459847 } }, "geometry": { "type": "Point", "coordinates": [ -0.375524007914653, 39.459846566849698 ] } },
{ "type": "Feature", "properties": { "objectid": 8369, "id_falla": 177, "nombre": "Sueca-Literat Azorín", "seccion": "E", "fallera": "Elena Cayetana Beltrán Vázquez", "presidente": "Juan J. Micó Bouzo", "artista": "Pedro Santaeulalia Serrán", "lema": "Onírica", "anyo_fundacion": 1955, "distintivo": "Brillants (1996)", "boceto": "http://mapas.valencia.es/WebsMunicipales/layar/img/fallasvalencia/2026_177_bm.jpg", "experim": 0, "geo_point_2d": { "lon": -0.374307, "lat": 39.460359 } }, "geometry": { "type": "Point", "coordinates": [ -0.374306551769146, 39.46035936819095 ] } },
{ "type": "Feature", "properties": { "objectid": 8421, "id_falla": 187, "nombre": "Avinguda Regne de València-Duc de Calàbria", "seccion": "E", "fallera": "Irene Cases Villanueva", "presidente": "Rafael Hércules Ferraro", "artista": "Sergio Musoles Ros", "lema": "La falla del Regne ¡Animal!", "anyo_fundacion": 1934, "distintivo": "Brillants (1998)", "boceto": "http://mapas.valencia.es/WebsMunicipales/layar/img/fallasvalencia/2026_187_bm.jpg", "experim": 0, "geo_point_2d": { "lon": -0.366965, "lat": 39.463704 } }, "geometry": { "type": "Point", "coordinates": [ -0.366964808955989, 39.463703678951298 ] } }
]
}
