{"type":"FeatureCollection","features":[{"type":"Feature","properties":{"Complejo":"La Fe","Zona":"Bulevar Sur","Estado":"En servicio desde 2010","Tipo":"Hospital general","Titularidad":"Público","LAT":39.44371783742838,"LONG":-0.37608912318101867},"geometry":{"type":"Point","coordinates":[-0.376089,39.443718]}},{"type":"Feature","properties":{"Complejo":"Futuro edificio protonterapia","Zona":"Bulevar Sur","Estado":"En construcción","Tipo":"Centro especializado en cáncer","Titularidad":"Público","LAT":39.44412425789057,"LONG":-0.3724386005318593},"geometry":{"type":"Point","coordinates":[-0.372439,39.444124]}},{"type":"Feature","properties":{"Complejo":"Nuevo hospital Ascires","Zona":"Bulevar Sur","Estado":"En servicio desde noviembre","Tipo":"Hospital general","Titularidad":"Privado","LAT":39.45381359713943,"LONG":-0.40027272571005246},"geometry":{"type":"Point","coordinates":[-0.400273,39.453814]}},{"type":"Feature","properties":{"Complejo":"Nuevo Vithas Valencia Turia","Zona":"Bulevar Sur","Estado":"En servicio desde 2025","Tipo":"Hospital general","Titularidad":"Privado","LAT":39.44760654778897,"LONG":-0.3733604634800431},"geometry":{"type":"Point","coordinates":[-0.37336,39.447607]}},{"type":"Feature","properties":{"Complejo":"Futuro hospital Quirón","Zona":"Bulevar Sur","Estado":"En construcción","Tipo":"Hospital general","Titularidad":"Privado","LAT":39.4432055055678,"LONG":-0.3699081854317878},"geometry":{"type":"Point","coordinates":[-0.369908,39.443206]}},{"type":"Feature","properties":{"Complejo":"Hospital Doctor Peset ","Zona":"Bulevar Sur","Estado":"En servicio desde los 80. En reformas","Tipo":"Hospital general","Titularidad":"Público","LAT":39.45282182641671,"LONG":-0.39418918741319536},"geometry":{"type":"Point","coordinates":[-0.394189,39.452822]}},{"type":"Feature","properties":{"Complejo":"Hospital de crónicos Padre Jofré","Zona":"Bulevar Sur","Estado":"En servicio desde 2005","Tipo":"Hospital de enfermos crónicos","Titularidad":"Privado","LAT":39.453318802180135,"LONG":-0.3948668868488716},"geometry":{"type":"Point","coordinates":[-0.394867,39.453319]}},{"type":"Feature","properties":{"@circle":{"type":"Mercator","center":[-0.38571848615520965,39.447498230134485]}},"geometry":{"type":"Polygon","coordinates":[[[-0.367994,39.447498],[-0.368029,39.448358],[-0.368134,39.449214],[-0.368308,39.450063],[-0.368551,39.450902],[-0.368861,39.451728],[-0.369239,39.452537],[-0.369681,39.453326],[-0.370186,39.454092],[-0.370753,39.454832],[-0.371379,39.455543],[-0.372062,39.456222],[-0.372798,39.456867],[-0.373585,39.457475],[-0.37442,39.458043],[-0.3753,39.45857],[-0.376221,39.459054],[-0.37718,39.459491],[-0.378172,39.459881],[-0.379194,39.460223],[-0.380241,39.460514],[-0.381311,39.460754],[-0.382397,39.460941],[-0.383497,39.461076],[-0.384606,39.461157],[-0.385718,39.461184],[-0.386831,39.461157],[-0.38794,39.461076],[-0.38904,39.460941],[-0.390126,39.460754],[-0.391196,39.460514],[-0.392243,39.460223],[-0.393265,39.459881],[-0.394257,39.459491],[-0.395216,39.459054],[-0.396137,39.45857],[-0.397017,39.458043],[-0.397852,39.457475],[-0.398639,39.456867],[-0.399375,39.456222],[-0.400058,39.455543],[-0.400684,39.454832],[-0.401251,39.454092],[-0.401756,39.453326],[-0.402198,39.452537],[-0.402575,39.451728],[-0.402886,39.450902],[-0.403129,39.450063],[-0.403303,39.449214],[-0.403408,39.448358],[-0.403443,39.447498],[-0.403408,39.446639],[-0.403303,39.445783],[-0.403129,39.444933],[-0.402886,39.444094],[-0.402575,39.443269],[-0.402198,39.44246],[-0.401756,39.44167],[-0.401251,39.440904],[-0.400684,39.440164],[-0.400058,39.439453],[-0.399375,39.438773],[-0.398639,39.438128],[-0.397852,39.43752],[-0.397017,39.436951],[-0.396137,39.436424],[-0.395216,39.435941],[-0.394257,39.435503],[-0.393265,39.435113],[-0.392243,39.434771],[-0.391196,39.43448],[-0.390126,39.43424],[-0.38904,39.434052],[-0.38794,39.433918],[-0.386831,39.433837],[-0.385718,39.43381],[-0.384606,39.433837],[-0.383497,39.433918],[-0.382397,39.434052],[-0.381311,39.43424],[-0.380241,39.43448],[-0.379194,39.434771],[-0.378172,39.435113],[-0.37718,39.435503],[-0.376221,39.435941],[-0.3753,39.436424],[-0.37442,39.436951],[-0.373585,39.43752],[-0.372798,39.438128],[-0.372062,39.438773],[-0.371379,39.439453],[-0.370753,39.440164],[-0.370186,39.440904],[-0.369681,39.44167],[-0.369239,39.44246],[-0.368861,39.443269],[-0.368551,39.444094],[-0.368308,39.444933],[-0.368134,39.445783],[-0.367994,39.447498]]]}}]}